{"type":"FeatureCollection","properties":{"description":"Taxameter-Pflichtgebiet — amtliche Verwaltungsgrenzen (vereinfacht)","license":"OpenStreetMap ODbL — https://www.openstreetmap.org/copyright"},"features":[{"type":"Feature","properties":{"id":"stuttgart-stadtkreis","name":"Stuttgart","deAmtlicherGemeindeschluessel":"08111000","source":"OpenStreetMap via Overpass API (ODbL)","fetchedAt":"2026-06-28"},"geometry":{"type":"Polygon","coordinates":[[[9.0941887,48.8352486],[9.0951504,48.834141],[9.0970419,48.8342042],[9.0972477,48.8329072],[9.0988627,48.8302174],[9.099336,48.8300499],[9.099457,48.8291868],[9.1014986,48.829306],[9.1027317,48.8280322],[9.1083068,48.8293424],[9.1087473,48.8248186],[9.1123537,48.8252071],[9.1135714,48.8247952],[9.1131547,48.8245083],[9.113978,48.8234961],[9.1228431,48.8247501],[9.1321628,48.8273368],[9.1381626,48.8280421],[9.1382334,48.8299492],[9.1386686,48.8306024],[9.1387065,48.8314818],[9.1370886,48.831044],[9.1388162,48.8318729],[9.1380298,48.8353758],[9.1391889,48.8369746],[9.1400723,48.8375125],[9.1400983,48.8382382],[9.1384122,48.8391891],[9.138714,48.83957],[9.1371889,48.839843],[9.136522,48.8402361],[9.1353116,48.8420469],[9.1336444,48.8439168],[9.1339394,48.8446365],[9.135621,48.8437012],[9.136076,48.84407],[9.1404216,48.8437114],[9.1408456,48.8439968],[9.1418083,48.8439629],[9.1425957,48.8442255],[9.1431604,48.8448126],[9.1396009,48.8496359],[9.1390027,48.8518399],[9.1371893,48.8527665],[9.1338766,48.8530245],[9.1337755,48.8576257],[9.1409109,48.8562509],[9.1407169,48.8599233],[9.1411279,48.859846],[9.1410059,48.8619084],[9.1451903,48.8606413],[9.1466846,48.8599422],[9.1536284,48.8607207],[9.1540919,48.8587668],[9.1549396,48.8570007],[9.1584296,48.8570404],[9.1613268,48.8559942],[9.1593916,48.8540408],[9.1601432,48.8531059],[9.1638657,48.8513962],[9.1645867,48.8515425],[9.1657703,48.8508712],[9.1666649,48.8509282],[9.1680534,48.8517373],[9.1698399,48.8522164],[9.1702401,48.850601],[9.1713974,48.8489789],[9.1731213,48.8487421],[9.1743893,48.8479905],[9.17622,48.8475184],[9.1764946,48.8487549],[9.1767071,48.848763],[9.1767572,48.849579],[9.1798674,48.8487111],[9.1804457,48.8494576],[9.1826656,48.8487815],[9.1833125,48.8496819],[9.1861004,48.848726],[9.1868316,48.8493184],[9.1900022,48.8476645],[9.1938997,48.8511785],[9.1968399,48.8506815],[9.1968897,48.851254],[9.2000565,48.8511139],[9.2022797,48.8512761],[9.2049436,48.8517619],[9.2076705,48.852754],[9.2050765,48.8544472],[9.2075842,48.855838],[9.206518,48.8561974],[9.206731,48.8573114],[9.2061396,48.8573692],[9.206631,48.8595957],[9.2059174,48.8612696],[9.2121975,48.8626349],[9.214151,48.8638181],[9.2152386,48.8632212],[9.2158738,48.8650338],[9.2155777,48.8658436],[9.2170757,48.8657333],[9.2169182,48.8663994],[9.2190424,48.8662873],[9.2267039,48.8643258],[9.2303795,48.8638639],[9.2284816,48.8582347],[9.2296345,48.8577148],[9.2294809,48.8573703],[9.2304981,48.8570788],[9.2297416,48.8547591],[9.233745,48.8539033],[9.232766,48.8511614],[9.2332947,48.8511338],[9.2328979,48.8500802],[9.2340422,48.8502466],[9.2337007,48.8493445],[9.2368496,48.8478679],[9.2383462,48.8463374],[9.2388637,48.8467822],[9.2394269,48.8465404],[9.2408776,48.8472205],[9.244139,48.8472442],[9.2435789,48.8460999],[9.2420579,48.8446024],[9.2391106,48.8426625],[9.2371672,48.8419978],[9.2383582,48.8409383],[9.2384954,48.8402783],[9.2381751,48.8402008],[9.2401569,48.8387495],[9.238767,48.8380093],[9.2384822,48.8373426],[9.2396505,48.8372067],[9.2393647,48.8360562],[9.2446835,48.8347265],[9.2460906,48.8341654],[9.2459384,48.8340164],[9.2444728,48.8343325],[9.2432814,48.8339182],[9.2427993,48.8333396],[9.2421013,48.8312154],[9.2403632,48.829934],[9.2413643,48.8262517],[9.2426371,48.8263093],[9.2426994,48.8258435],[9.2434208,48.8258981],[9.2438249,48.8246492],[9.2430367,48.8245547],[9.243355,48.8229061],[9.2454529,48.8231069],[9.2462707,48.8213186],[9.2477843,48.8215582],[9.2487854,48.8193378],[9.2497819,48.8195509],[9.2502853,48.8186305],[9.2531502,48.819405],[9.2541028,48.8165734],[9.2550626,48.8168875],[9.255622,48.8154309],[9.25452,48.8152376],[9.2550218,48.8141717],[9.2547613,48.8140878],[9.2552507,48.8129485],[9.2562801,48.8131432],[9.2567539,48.8120817],[9.2562804,48.8119907],[9.2568091,48.8107714],[9.253208,48.8100538],[9.2541802,48.8038807],[9.255338,48.8039793],[9.2553316,48.8020407],[9.2544724,48.8017892],[9.2547387,48.8007111],[9.255235,48.8004475],[9.2545667,48.8002937],[9.2546793,48.8000629],[9.2538186,48.8001058],[9.2503092,48.7990632],[9.2509191,48.7978302],[9.2494576,48.7973935],[9.2492489,48.7966416],[9.2496339,48.7966627],[9.2499824,48.7962425],[9.2471376,48.7960341],[9.2465441,48.7957119],[9.2465901,48.7950916],[9.2469065,48.7948223],[9.2480228,48.7950602],[9.2488819,48.7937475],[9.2500308,48.7937052],[9.2513801,48.792776],[9.2544576,48.794674],[9.2558383,48.7947585],[9.2589859,48.7955365],[9.2600058,48.7954911],[9.2616491,48.7949255],[9.2625507,48.795218],[9.2626927,48.7951244],[9.2622371,48.794791],[9.2622742,48.7943251],[9.264334,48.7937277],[9.2637192,48.7935037],[9.2630056,48.7924854],[9.2653583,48.7913719],[9.265804,48.7914519],[9.2654946,48.7924313],[9.266832,48.7925846],[9.2670055,48.7922924],[9.2693624,48.7926195],[9.2715969,48.7937227],[9.2715447,48.7939373],[9.2732899,48.7942207],[9.2733396,48.7934833],[9.2744613,48.7925475],[9.2746916,48.7913102],[9.2733294,48.7893625],[9.2741141,48.7895179],[9.2758061,48.7905045],[9.2772762,48.7898724],[9.2844513,48.7898289],[9.2861008,48.7903334],[9.2862019,48.7905735],[9.286658,48.790534],[9.2868646,48.7902479],[9.2885416,48.7904176],[9.2885163,48.7908489],[9.2900671,48.79167],[9.2913884,48.7907501],[9.2887461,48.7877516],[9.2911913,48.7866991],[9.2923626,48.7869194],[9.2933576,48.7878142],[9.2953397,48.7887016],[9.2992904,48.7855809],[9.2976133,48.7847797],[9.2960288,48.78447],[9.2936443,48.7822874],[9.2943144,48.7814985],[9.2979519,48.7798467],[9.2992977,48.7803373],[9.2987316,48.7797212],[9.2986392,48.7792425],[9.2995836,48.7787851],[9.3032868,48.7802856],[9.3053055,48.7803921],[9.3070962,48.7808946],[9.3075353,48.7782911],[9.3154906,48.778944],[9.3160228,48.7782175],[9.3156012,48.7771455],[9.3143039,48.7755368],[9.3144191,48.7745447],[9.3084061,48.7739073],[9.3081626,48.7738208],[9.3085702,48.7731343],[9.308285,48.7726908],[9.3075112,48.7731951],[9.3068728,48.7731687],[9.307067,48.7733251],[9.306433,48.7737581],[9.305014,48.7739109],[9.3046046,48.7747655],[9.3034861,48.7748265],[9.3032302,48.7750364],[9.3035653,48.7753867],[9.3023214,48.7759111],[9.2965132,48.7736483],[9.2972375,48.7728941],[9.296631,48.7723642],[9.2945199,48.7716342],[9.2926897,48.7704753],[9.2893334,48.7699364],[9.2887118,48.7694014],[9.2884564,48.7688302],[9.2862132,48.7686259],[9.2850756,48.7687819],[9.2838379,48.7684164],[9.2817902,48.7688616],[9.280387,48.768194],[9.277747,48.7693481],[9.2774253,48.7691025],[9.2773138,48.7697372],[9.2760563,48.7699355],[9.2751204,48.768221],[9.2753408,48.7680479],[9.2747303,48.7676797],[9.2737396,48.7678048],[9.272809,48.7676034],[9.2739755,48.7662552],[9.2724972,48.766143],[9.2726302,48.7657713],[9.2741781,48.7651324],[9.2746306,48.7647229],[9.2741115,48.7646725],[9.2723253,48.7625977],[9.2732718,48.7617019],[9.2745884,48.7615763],[9.2748989,48.761073],[9.2746415,48.7606344],[9.2748395,48.7603632],[9.2752894,48.7604147],[9.2748547,48.7601621],[9.2753488,48.7599238],[9.2750907,48.7594504],[9.2749595,48.7577475],[9.2757292,48.756485],[9.2750879,48.7561699],[9.2736773,48.7562658],[9.2736709,48.755904],[9.2723444,48.7557296],[9.271666,48.756761],[9.2707788,48.7567124],[9.2681588,48.7534615],[9.2675981,48.7537912],[9.2662142,48.7535903],[9.266018,48.7524435],[9.2665601,48.7512727],[9.2663106,48.7511707],[9.2664299,48.7510064],[9.2642317,48.7503746],[9.2651625,48.7487764],[9.2625433,48.7471902],[9.260847,48.7457295],[9.2590536,48.7454479],[9.2591023,48.7452485],[9.2600959,48.7448757],[9.2615849,48.7434063],[9.2604054,48.7436515],[9.2578746,48.7427699],[9.2569605,48.7422325],[9.2565445,48.7414697],[9.2562123,48.7418819],[9.256463,48.7421081],[9.2555775,48.7425368],[9.2525787,48.7419443],[9.2528639,48.740272],[9.2512476,48.7401356],[9.2493303,48.7408941],[9.2494298,48.741377],[9.2467807,48.7420608],[9.2451483,48.7441997],[9.2444158,48.744068],[9.2428854,48.7432168],[9.2427059,48.741642],[9.2399918,48.7375302],[9.2390946,48.7373914],[9.2392564,48.7371159],[9.2374924,48.7363192],[9.2347034,48.7376105],[9.2332324,48.7380245],[9.231934,48.7354729],[9.231256,48.7356606],[9.2310362,48.735161],[9.2291872,48.7348079],[9.2259104,48.7350513],[9.226112,48.7314662],[9.2225131,48.7314421],[9.2221472,48.7315955],[9.2221135,48.7322128],[9.219812,48.7325371],[9.2167673,48.7323511],[9.2143324,48.7313752],[9.2145895,48.7312039],[9.2136049,48.7302343],[9.2134842,48.729722],[9.2127467,48.7289381],[9.2126164,48.7284189],[9.2128934,48.7273921],[9.2125924,48.7264028],[9.2121393,48.7262947],[9.2114766,48.7265412],[9.2150364,48.7248452],[9.2165598,48.723784],[9.2178398,48.7222714],[9.2188136,48.7216677],[9.2190554,48.7205912],[9.2215126,48.7190333],[9.2245093,48.7157808],[9.2248774,48.7145273],[9.2258143,48.7141309],[9.2275164,48.7126323],[9.2280137,48.7126106],[9.2281838,48.7113345],[9.2292058,48.7116337],[9.2302489,48.7097116],[9.2311413,48.7096362],[9.2317925,48.7100633],[9.2325221,48.7101975],[9.2333909,48.7108596],[9.2346488,48.7111886],[9.2344252,48.711433],[9.2353142,48.7111562],[9.2364944,48.7115723],[9.2397677,48.7115074],[9.2406639,48.7103043],[9.2410846,48.7092527],[9.2409194,48.7087948],[9.2387331,48.7063699],[9.2382478,48.7040496],[9.2386008,48.7014718],[9.2393079,48.6989073],[9.2394043,48.6970745],[9.2438641,48.6977118],[9.2440383,48.6971781],[9.2438124,48.697146],[9.2449713,48.6945542],[9.2267882,48.6925018],[9.2224494,48.692201],[9.2145593,48.6920188],[9.2050075,48.6923153],[9.2015829,48.6926511],[9.1986409,48.693207],[9.1938267,48.6947122],[9.1751266,48.7034884],[9.1695052,48.7053724],[9.15192,48.7079726],[9.1396992,48.7094492],[9.1351857,48.7093341],[9.1235875,48.708085],[9.118793,48.7082631],[9.1126472,48.7091223],[9.1003348,48.7116724],[9.0869266,48.715235],[9.0738714,48.7230892],[9.0744001,48.7234939],[9.0712601,48.7252753],[9.0679315,48.7264924],[9.062808,48.7273789],[9.0635292,48.7289929],[9.0652006,48.7294934],[9.0672598,48.7305667],[9.067602,48.7323617],[9.0666221,48.7341538],[9.0625792,48.7340573],[9.0565347,48.733123],[9.0551607,48.7350497],[9.0540227,48.7374293],[9.054066,48.737929],[9.0548882,48.7379795],[9.0547898,48.7381375],[9.0529949,48.7397317],[9.0516284,48.7405159],[9.0483453,48.7404656],[9.0457083,48.7412642],[9.0416068,48.7405906],[9.0398982,48.7407586],[9.0386007,48.741318],[9.0389852,48.7424076],[9.0397133,48.7429422],[9.0398319,48.7434579],[9.0446585,48.7458856],[9.0457274,48.7470999],[9.0465507,48.7475003],[9.0526923,48.7481374],[9.054799,48.7478574],[9.0560427,48.7472143],[9.0584672,48.7468714],[9.061586,48.7474807],[9.0652825,48.7475718],[9.0656224,48.7477606],[9.066111,48.7476278],[9.0661495,48.7474162],[9.0673367,48.7473036],[9.0675054,48.7476591],[9.0688878,48.7485591],[9.0635775,48.7479571],[9.0622861,48.7501188],[9.0628913,48.7526085],[9.0642228,48.7544327],[9.065236,48.755386],[9.0676757,48.7566633],[9.0690585,48.7566894],[9.0690368,48.7563601],[9.067384,48.7560639],[9.0689638,48.7559768],[9.0700767,48.7555856],[9.0734849,48.7555558],[9.0741488,48.7548878],[9.0751289,48.7547373],[9.0753478,48.7550748],[9.076771,48.7552269],[9.0773896,48.7560039],[9.0771136,48.7564443],[9.0772948,48.7573214],[9.076516,48.7579731],[9.0761094,48.7594496],[9.076438,48.7607566],[9.0776773,48.7631705],[9.0776067,48.7641971],[9.0758558,48.7671915],[9.0803841,48.767608],[9.0833177,48.7686069],[9.0825476,48.7697347],[9.0835044,48.7706354],[9.0839471,48.7714045],[9.0853426,48.7719629],[9.0850589,48.7726607],[9.085809,48.7736242],[9.0843856,48.7748362],[9.0834878,48.7751232],[9.0835331,48.7755293],[9.0849706,48.7769429],[9.0851567,48.7775726],[9.0866963,48.7784844],[9.0868286,48.7791875],[9.0857621,48.7804401],[9.0857437,48.7810284],[9.0862578,48.7813655],[9.087018,48.7813484],[9.0883223,48.7820005],[9.0752586,48.787157],[9.0753905,48.7895407],[9.0760275,48.7899455],[9.0768768,48.7914607],[9.078184,48.7946515],[9.0801552,48.7955533],[9.0795495,48.7946678],[9.079609,48.7942163],[9.0797735,48.7942563],[9.0798984,48.7949585],[9.0812414,48.7963691],[9.0822047,48.7970233],[9.0830325,48.7966745],[9.0831156,48.7969069],[9.0841316,48.7968915],[9.0846324,48.7981056],[9.0843771,48.7986021],[9.08491,48.7998997],[9.08508,48.8020495],[9.0860646,48.804017],[9.0856697,48.8063545],[9.0873673,48.8097682],[9.0841349,48.8094287],[9.0834343,48.8115894],[9.0817933,48.8113317],[9.0804039,48.8130912],[9.0795704,48.8126184],[9.0791758,48.8131237],[9.0783436,48.8129566],[9.0773105,48.8137473],[9.07669,48.814565],[9.0796363,48.8154162],[9.0801736,48.8152491],[9.0795799,48.8160093],[9.0798904,48.8161199],[9.079436,48.8167779],[9.0805643,48.8170474],[9.0798437,48.8177537],[9.0803908,48.8179932],[9.079912,48.8183799],[9.0833991,48.81905],[9.0833925,48.820019],[9.0842575,48.8241203],[9.0852947,48.8239884],[9.0850955,48.8261435],[9.0867173,48.8260469],[9.0864321,48.8300252],[9.0862447,48.8306716],[9.0857264,48.8309182],[9.0879834,48.8326006],[9.0910182,48.8343272],[9.0935575,48.8355234],[9.0940514,48.8351918],[9.0941887,48.8352486]]]}},{"type":"Feature","properties":{"id":"landkreis-esslingen","name":"Landkreis Esslingen","deRegionalschluessel":"08116","source":"OpenStreetMap via Overpass API (ODbL)","fetchedAt":"2026-06-28"},"geometry":{"type":"MultiPolygon","coordinates":[[[[9.4844551,48.7089805],[9.4861517,48.7098277],[9.4902406,48.7108385],[9.4906866,48.7117063],[9.4904919,48.7118832],[9.4927913,48.7127953],[9.4934692,48.7138019],[9.4931912,48.7148756],[9.4919128,48.7170175],[9.4920377,48.7180438],[9.4925609,48.7187564],[9.4920413,48.7202918],[9.4903601,48.7220457],[9.490728,48.7227767],[9.4885794,48.7243714],[9.486945,48.7250237],[9.4874107,48.7269917],[9.4887353,48.7274886],[9.4897855,48.7283341],[9.494245,48.7295407],[9.4943319,48.7299969],[9.494077,48.7301803],[9.4947198,48.7308229],[9.494359,48.7311483],[9.4946299,48.7318562],[9.4952989,48.7323781],[9.4955757,48.7335741],[9.4964022,48.7343157],[9.4963741,48.7349902],[9.4966884,48.7352303],[9.4967283,48.7356175],[9.4963923,48.7360244],[9.4967791,48.7370636],[9.4974482,48.7376509],[9.4986764,48.7378664],[9.4992472,48.738395],[9.4997305,48.7383095],[9.5009451,48.7387973],[9.5011419,48.7389224],[9.5008794,48.7391436],[9.5012518,48.739312],[9.5011165,48.7394178],[9.5021187,48.7397561],[9.5025565,48.7400693],[9.5024986,48.7402464],[9.5028987,48.7403619],[9.5027494,48.7405637],[9.5042968,48.7419557],[9.5046659,48.7427652],[9.5063752,48.7436827],[9.5059867,48.7442423],[9.5073419,48.7452806],[9.5081198,48.7465407],[9.5077469,48.7466786],[9.5085739,48.7480653],[9.5091953,48.7479704],[9.510806,48.7493145],[9.5040061,48.7519863],[9.5002414,48.7546345],[9.4971283,48.7562215],[9.4966515,48.758717],[9.4949043,48.7606643],[9.4939497,48.7629642],[9.494115,48.7645171],[9.4945959,48.7654561],[9.4944058,48.7663667],[9.492658,48.767369],[9.4897546,48.7659175],[9.4883663,48.7655789],[9.4847501,48.7652723],[9.4802587,48.7668099],[9.4780475,48.7679531],[9.4768829,48.7688504],[9.4758408,48.7703283],[9.4737993,48.7718635],[9.4714239,48.7741335],[9.4633483,48.7705416],[9.457482,48.7733105],[9.4574261,48.7740665],[9.4577855,48.7752826],[9.4554503,48.7750577],[9.4533998,48.7751724],[9.4508557,48.7766636],[9.4466364,48.7771524],[9.446587,48.7774611],[9.4452005,48.7776356],[9.4402767,48.7761889],[9.4401457,48.7763383],[9.4354204,48.7753059],[9.4362351,48.7742385],[9.4360846,48.7739048],[9.4332997,48.7712253],[9.4310376,48.7700333],[9.4290776,48.768599],[9.4283561,48.767629],[9.4301936,48.7658044],[9.4302307,48.7653392],[9.4299271,48.7649222],[9.4293551,48.7646444],[9.4276131,48.7644883],[9.4256465,48.763802],[9.4227986,48.7635293],[9.4208729,48.7630045],[9.4205818,48.7624019],[9.420486,48.7615869],[9.420753,48.7608058],[9.4204223,48.7594278],[9.418307,48.7581807],[9.4181417,48.7582801],[9.4182875,48.7584637],[9.4194149,48.7593682],[9.4194539,48.7600941],[9.419063,48.7605095],[9.4192747,48.762192],[9.41902,48.7623657],[9.4197579,48.7632712],[9.4187321,48.7632784],[9.4186559,48.7637034],[9.4190281,48.7645733],[9.4177401,48.7655099],[9.4164141,48.765032],[9.4148879,48.7652716],[9.4150984,48.7665161],[9.4133447,48.7670889],[9.4138318,48.7687943],[9.4135384,48.7695347],[9.4129812,48.7705404],[9.4109579,48.7725036],[9.4103248,48.7726713],[9.4084104,48.772517],[9.407929,48.7727501],[9.4083803,48.7731608],[9.4107857,48.7734395],[9.4118079,48.7738429],[9.4102561,48.774501],[9.4096983,48.7762133],[9.4075016,48.7788498],[9.4071484,48.7789697],[9.4058794,48.778022],[9.404171,48.7794471],[9.4015772,48.7822279],[9.4022655,48.7830495],[9.4022516,48.7836253],[9.4006364,48.7835462],[9.3993103,48.7838243],[9.3969404,48.7856069],[9.3902951,48.7882531],[9.3872682,48.7868251],[9.3870598,48.7858731],[9.3849173,48.7855789],[9.3850388,48.7846241],[9.3839759,48.7840445],[9.3822734,48.7823522],[9.3830295,48.781067],[9.3850628,48.7792202],[9.3863086,48.7769398],[9.386907,48.7734565],[9.3867545,48.7704745],[9.3861726,48.7703465],[9.3836721,48.7700074],[9.3817553,48.7701673],[9.3808708,48.7697485],[9.3798147,48.7696548],[9.3790985,48.7700597],[9.3789433,48.7712716],[9.3786066,48.7718529],[9.377722,48.7724321],[9.375967,48.7717762],[9.3744259,48.7707447],[9.3712778,48.7708735],[9.3666764,48.7695582],[9.3651516,48.7696626],[9.3625634,48.7707362],[9.3603638,48.7726042],[9.3589424,48.7727001],[9.3594076,48.7734983],[9.3576856,48.7730993],[9.3574491,48.7737949],[9.35759,48.7742263],[9.3573104,48.7742681],[9.3571024,48.7748577],[9.3564419,48.7747064],[9.3564384,48.7743887],[9.3546132,48.7741546],[9.3542222,48.7744457],[9.3541204,48.7740794],[9.3544184,48.7730471],[9.3537055,48.7729557],[9.3535973,48.7721539],[9.3526016,48.7720808],[9.3524272,48.7718006],[9.3526519,48.7697434],[9.3512281,48.7694747],[9.347817,48.7694031],[9.345255,48.7698271],[9.3438281,48.7697925],[9.3447306,48.7691423],[9.3446908,48.7681426],[9.3450118,48.7676979],[9.3448192,48.7674585],[9.3442346,48.7675666],[9.344533,48.7677695],[9.3439761,48.7680892],[9.344248,48.7681669],[9.3439267,48.7692783],[9.3425913,48.7687642],[9.342198,48.7684113],[9.342061,48.7677055],[9.3413197,48.7671779],[9.3369833,48.7661915],[9.3355994,48.765501],[9.3340442,48.7683577],[9.3335641,48.7687196],[9.3310692,48.7690247],[9.3275293,48.768802],[9.3262849,48.7681104],[9.3237173,48.7689414],[9.3217927,48.7699501],[9.3211345,48.7712315],[9.3205902,48.771608],[9.3169144,48.7722854],[9.3148236,48.7731988],[9.3143822,48.7737484],[9.3144191,48.7745447],[9.3084061,48.7739073],[9.3081626,48.7738208],[9.3085702,48.7731343],[9.308285,48.7726908],[9.3075112,48.7731951],[9.3068728,48.7731687],[9.307067,48.7733251],[9.306433,48.7737581],[9.305014,48.7739109],[9.3046046,48.7747655],[9.3034861,48.7748265],[9.3032302,48.7750364],[9.3035653,48.7753867],[9.3023214,48.7759111],[9.2965132,48.7736483],[9.2972375,48.7728941],[9.296631,48.7723642],[9.2945199,48.7716342],[9.2926897,48.7704753],[9.2893334,48.7699364],[9.2887118,48.7694014],[9.2884564,48.7688302],[9.2862132,48.7686259],[9.2850756,48.7687819],[9.2838379,48.7684164],[9.2817902,48.7688616],[9.280387,48.768194],[9.277747,48.7693481],[9.2774253,48.7691025],[9.2773138,48.7697372],[9.2760563,48.7699355],[9.2751204,48.768221],[9.2753408,48.7680479],[9.2747303,48.7676797],[9.2737396,48.7678048],[9.272809,48.7676034],[9.2739755,48.7662552],[9.2724972,48.766143],[9.2726302,48.7657713],[9.2741781,48.7651324],[9.2746306,48.7647229],[9.2741115,48.7646725],[9.2723253,48.7625977],[9.2732718,48.7617019],[9.2745884,48.7615763],[9.2748989,48.761073],[9.2746415,48.7606344],[9.2748395,48.7603632],[9.2752894,48.7604147],[9.2748547,48.7601621],[9.2753488,48.7599238],[9.2750907,48.7594504],[9.2749595,48.7577475],[9.2757292,48.756485],[9.2750879,48.7561699],[9.2736773,48.7562658],[9.2736709,48.755904],[9.2723444,48.7557296],[9.271666,48.756761],[9.2707788,48.7567124],[9.2681588,48.7534615],[9.2675981,48.7537912],[9.2662142,48.7535903],[9.266018,48.7524435],[9.2665601,48.7512727],[9.2663106,48.7511707],[9.2664299,48.7510064],[9.2642317,48.7503746],[9.2651625,48.7487764],[9.2625433,48.7471902],[9.260847,48.7457295],[9.2590536,48.7454479],[9.2591023,48.7452485],[9.2600959,48.7448757],[9.2615849,48.7434063],[9.2604054,48.7436515],[9.2578746,48.7427699],[9.2569605,48.7422325],[9.2565445,48.7414697],[9.2562123,48.7418819],[9.256463,48.7421081],[9.2555775,48.7425368],[9.2525787,48.7419443],[9.2528639,48.740272],[9.2512476,48.7401356],[9.2493303,48.7408941],[9.2494298,48.741377],[9.2467807,48.7420608],[9.2451483,48.7441997],[9.2444158,48.744068],[9.2428854,48.7432168],[9.2427059,48.741642],[9.2399918,48.7375302],[9.2390946,48.7373914],[9.2392564,48.7371159],[9.2374924,48.7363192],[9.2347034,48.7376105],[9.2332324,48.7380245],[9.231934,48.7354729],[9.231256,48.7356606],[9.2310362,48.735161],[9.2291872,48.7348079],[9.2259104,48.7350513],[9.226112,48.7314662],[9.2225131,48.7314421],[9.2221472,48.7315955],[9.2221135,48.7322128],[9.219812,48.7325371],[9.2167673,48.7323511],[9.2145112,48.7315357],[9.2143324,48.7313752],[9.2145895,48.7312039],[9.2136049,48.7302343],[9.2134842,48.729722],[9.2127467,48.7289381],[9.2126164,48.7284189],[9.2128934,48.7273921],[9.2125924,48.7264028],[9.2121393,48.7262947],[9.2114766,48.7265412],[9.2150364,48.7248452],[9.2165598,48.723784],[9.2178398,48.7222714],[9.2188136,48.7216677],[9.2190554,48.7205912],[9.2215126,48.7190333],[9.2245093,48.7157808],[9.2248774,48.7145273],[9.2258143,48.7141309],[9.2275164,48.7126323],[9.2280137,48.7126106],[9.2281838,48.7113345],[9.2292058,48.7116337],[9.2302489,48.7097116],[9.2307261,48.7095584],[9.2325221,48.7101975],[9.2333909,48.7108596],[9.2346488,48.7111886],[9.2344252,48.711433],[9.2353142,48.7111562],[9.2364944,48.7115723],[9.2397677,48.7115074],[9.2406639,48.7103043],[9.2410846,48.7092527],[9.2409194,48.7087948],[9.2387331,48.7063699],[9.2382478,48.7040496],[9.2386008,48.7014718],[9.2393079,48.6989073],[9.2394043,48.6970745],[9.2438641,48.6977118],[9.2440383,48.6971781],[9.2438124,48.697146],[9.2449713,48.6945542],[9.2267882,48.6925018],[9.2224494,48.692201],[9.2145593,48.6920188],[9.2050075,48.6923153],[9.2015829,48.6926511],[9.1986409,48.693207],[9.1938267,48.6947122],[9.1751266,48.7034884],[9.1695052,48.7053724],[9.15192,48.7079726],[9.1402684,48.7094141],[9.1359237,48.7093892],[9.1246257,48.7081518],[9.1217434,48.7080479],[9.1133581,48.708999],[9.1064104,48.7105066],[9.1024573,48.709181],[9.0939492,48.705814],[9.0970834,48.7038575],[9.0997773,48.7025327],[9.1021079,48.7042962],[9.1044762,48.7026246],[9.1053875,48.7022632],[9.1057826,48.7015545],[9.106433,48.701331],[9.10738,48.6996665],[9.1082102,48.6990521],[9.1085039,48.698077],[9.1068002,48.6970503],[9.1034006,48.6980107],[9.1042987,48.6973321],[9.10459,48.6968242],[9.1064744,48.696496],[9.107041,48.6950905],[9.111787,48.6915976],[9.1140545,48.6904119],[9.1098833,48.6889913],[9.1074908,48.6871355],[9.1048532,48.6876461],[9.1001354,48.6877221],[9.099234,48.6868281],[9.0958158,48.6858517],[9.092422,48.685418],[9.0901739,48.684853],[9.0896882,48.6842313],[9.087685,48.6836372],[9.0866287,48.6827426],[9.0866142,48.682307],[9.0851548,48.6808365],[9.0859395,48.6794249],[9.0848996,48.6779409],[9.0848837,48.6768472],[9.0852684,48.6753626],[9.0859221,48.6745698],[9.0872828,48.6741929],[9.0881753,48.6735918],[9.0900998,48.6746867],[9.0910155,48.6743267],[9.091559,48.6745174],[9.0930465,48.6737075],[9.0942326,48.6747827],[9.0935632,48.6760008],[9.0909901,48.6767875],[9.089115,48.6768618],[9.0915076,48.677231],[9.0935232,48.6779938],[9.09454,48.6797229],[9.0960517,48.6805846],[9.0969666,48.6798231],[9.0990206,48.6788345],[9.1067369,48.6776196],[9.1152068,48.6773199],[9.1152233,48.6786316],[9.1175419,48.6787937],[9.1211018,48.677335],[9.1212734,48.6770168],[9.1225089,48.6766741],[9.1270017,48.67724],[9.1280484,48.6768679],[9.1270177,48.6757877],[9.1257433,48.67536],[9.1247294,48.6760688],[9.1229497,48.6751747],[9.1229376,48.6748736],[9.1235775,48.6746545],[9.1238558,48.6726496],[9.1260587,48.6723362],[9.1271304,48.6706157],[9.1276273,48.67057],[9.1285723,48.6713613],[9.1288495,48.6704133],[9.1321369,48.6699257],[9.1349472,48.6675513],[9.1378659,48.666188],[9.1400609,48.6647668],[9.1418037,48.6658146],[9.1436109,48.6645492],[9.1453798,48.6641552],[9.1459093,48.6644746],[9.1472683,48.6630186],[9.1496762,48.662151],[9.1481598,48.6615674],[9.149969,48.6612733],[9.150458,48.6601811],[9.1526079,48.6591628],[9.1548479,48.6572509],[9.1546734,48.6569494],[9.1548067,48.6566856],[9.1556438,48.6559204],[9.1554695,48.6549044],[9.1565399,48.6536511],[9.1571796,48.6532427],[9.1572842,48.6528672],[9.156425,48.6525916],[9.1583461,48.6511433],[9.1581987,48.6503376],[9.1599893,48.6476306],[9.1657468,48.6438149],[9.1669117,48.6421144],[9.1673089,48.6407224],[9.1685053,48.6393366],[9.1671201,48.6392415],[9.1695143,48.6372849],[9.1703851,48.6369375],[9.1704996,48.6373186],[9.1710179,48.6363781],[9.1707795,48.6360018],[9.1716393,48.6353008],[9.1715488,48.6347349],[9.1717824,48.6344428],[9.1734219,48.6345003],[9.1734511,48.6335094],[9.1737911,48.6332572],[9.1717822,48.6330178],[9.1699491,48.6332229],[9.1680794,48.634378],[9.165671,48.6334531],[9.1650567,48.6320885],[9.1656582,48.6302266],[9.1678674,48.6256684],[9.1678173,48.6250632],[9.1673847,48.6245267],[9.1628116,48.6225199],[9.1609197,48.6219605],[9.1560281,48.621414],[9.1533693,48.6207954],[9.1510759,48.6198901],[9.1453559,48.6187359],[9.1441187,48.6179648],[9.1475345,48.6147342],[9.1491278,48.6124926],[9.1501257,48.6085707],[9.1497819,48.6073598],[9.1499534,48.6063715],[9.1506555,48.6050556],[9.1511239,48.604812],[9.1519659,48.6052186],[9.1556163,48.6059745],[9.1568851,48.6054095],[9.1588338,48.6052282],[9.1618497,48.6050399],[9.1658479,48.6053293],[9.1699736,48.6047889],[9.1708878,48.6048543],[9.1721738,48.6055393],[9.1743215,48.6054671],[9.1777144,48.6047141],[9.1796346,48.604763],[9.1811061,48.6053411],[9.1813709,48.6043847],[9.1807768,48.6044402],[9.1798643,48.6039435],[9.1799855,48.6033909],[9.1811241,48.6021058],[9.1813206,48.6023769],[9.182048,48.6024327],[9.1838427,48.6006833],[9.1822823,48.6008066],[9.1843128,48.5984893],[9.1856676,48.598539],[9.1858366,48.5982569],[9.1880662,48.5989924],[9.1913777,48.599696],[9.1963091,48.6013154],[9.2028631,48.6039529],[9.2037683,48.6028164],[9.2051306,48.6032241],[9.2067398,48.6011724],[9.2071199,48.6003291],[9.2063642,48.6001004],[9.2070969,48.5992206],[9.2061285,48.5985741],[9.2068122,48.5973432],[9.2061366,48.597179],[9.206162,48.5966903],[9.2051929,48.5966362],[9.2056611,48.5932586],[9.2023141,48.5935547],[9.2024989,48.5919634],[9.2000048,48.5916761],[9.1982081,48.5917988],[9.1981355,48.590648],[9.1974885,48.5905995],[9.1977262,48.5880511],[9.1983949,48.5883387],[9.1989756,48.5878309],[9.200139,48.5876516],[9.2030368,48.5865129],[9.2028215,48.586358],[9.2031091,48.5860576],[9.2047252,48.5853502],[9.206675,48.5837048],[9.2070382,48.5830967],[9.2067119,48.5828588],[9.2070996,48.5824188],[9.2069508,48.5819975],[9.2071252,48.5815408],[9.2076859,48.5813841],[9.2076073,48.5810096],[9.2080145,48.5805107],[9.207774,48.579762],[9.2080638,48.5797405],[9.2081981,48.5790374],[9.2078654,48.5788394],[9.2079532,48.5786749],[9.2073398,48.5784213],[9.2076966,48.5782538],[9.2074952,48.577206],[9.2076919,48.5767307],[9.2074461,48.5763964],[9.2078467,48.5758788],[9.207657,48.5757024],[9.207794,48.5751178],[9.207413,48.5747762],[9.2077802,48.5745355],[9.2071694,48.574026],[9.2074473,48.5739016],[9.207461,48.5734522],[9.2078883,48.5734459],[9.208042,48.5730248],[9.2084861,48.5727234],[9.2084026,48.5724593],[9.2089601,48.5723251],[9.2089016,48.572021],[9.209432,48.5722783],[9.2099916,48.5718999],[9.210221,48.5716814],[9.210198,48.5710106],[9.2107975,48.5704466],[9.2115186,48.5705896],[9.2128276,48.5696621],[9.2133471,48.5694867],[9.2133297,48.5696383],[9.2141491,48.5691679],[9.214562,48.5693021],[9.2163318,48.5679477],[9.2179928,48.5677303],[9.2209888,48.5679102],[9.2212727,48.5668441],[9.2219564,48.5664768],[9.2223304,48.5667394],[9.2220703,48.5668814],[9.2233497,48.5675612],[9.2251505,48.5663179],[9.2281712,48.5678016],[9.2287052,48.5683075],[9.2289583,48.5690065],[9.2290223,48.5711651],[9.2295785,48.572348],[9.2318435,48.5715684],[9.234985,48.5748527],[9.2364596,48.5744367],[9.2374406,48.5784699],[9.2411703,48.5786138],[9.2416199,48.5764383],[9.2474272,48.57448],[9.2480545,48.5748851],[9.2502293,48.573731],[9.2500167,48.5736159],[9.2522278,48.571966],[9.2532208,48.5725568],[9.2545691,48.5710822],[9.2524666,48.5705534],[9.2532833,48.5692174],[9.2537363,48.5693553],[9.2544521,48.5683439],[9.2568059,48.5690848],[9.256472,48.5694383],[9.256975,48.5697239],[9.2572635,48.569444],[9.2576688,48.5696279],[9.2582726,48.5688842],[9.2599343,48.5693123],[9.2603728,48.5682965],[9.2606157,48.5661865],[9.2617591,48.5660104],[9.2619671,48.5667292],[9.263918,48.566644],[9.2660063,48.5664615],[9.2659704,48.56574],[9.2664126,48.5657108],[9.2663578,48.5659675],[9.2667818,48.5659384],[9.266948,48.5656087],[9.2679959,48.5656927],[9.2683238,48.5669952],[9.2694187,48.5669438],[9.2694332,48.5663512],[9.2706323,48.5664129],[9.2705705,48.5667682],[9.2738365,48.5667754],[9.2758745,48.5671433],[9.2769412,48.5669908],[9.2778987,48.5679004],[9.279053,48.5684064],[9.279554,48.5677929],[9.2809197,48.5683135],[9.2809625,48.5676991],[9.2819201,48.566291],[9.2846364,48.5667595],[9.2848926,48.5658807],[9.2856387,48.5651434],[9.2864379,48.5652662],[9.2877235,48.5660396],[9.2878475,48.5657847],[9.2893441,48.5661992],[9.2898749,48.5653831],[9.2905668,48.5658266],[9.2916707,48.5659978],[9.2930174,48.5654115],[9.2946043,48.5653145],[9.2957883,48.5657819],[9.2963784,48.5674583],[9.2971748,48.5683605],[9.2961014,48.5696606],[9.2968915,48.5698518],[9.2966749,48.5705555],[9.2973533,48.5714195],[9.298959,48.5722884],[9.2985046,48.5728803],[9.2952081,48.5724591],[9.2944514,48.5735577],[9.2965581,48.5745817],[9.2981307,48.5738009],[9.2996565,48.5741566],[9.2999718,48.5743762],[9.2999427,48.5752667],[9.3003836,48.5763182],[9.3008369,48.5768405],[9.301707,48.5765194],[9.3021087,48.5776668],[9.3029269,48.5769748],[9.3039796,48.5772088],[9.3042643,48.5769625],[9.3058289,48.5769677],[9.3063848,48.5763238],[9.3067213,48.5764637],[9.3077694,48.5769959],[9.3080723,48.5776959],[9.3094593,48.5787253],[9.309869,48.5799302],[9.310534,48.5798014],[9.3112277,48.5803442],[9.3108266,48.5807273],[9.3123644,48.5811623],[9.3126684,48.5808543],[9.314699,48.5803316],[9.3146267,48.5801032],[9.3154114,48.579702],[9.3155796,48.5794984],[9.3154642,48.5783866],[9.3157997,48.5782851],[9.3160109,48.5787013],[9.3164379,48.5785791],[9.3179326,48.577592],[9.3184088,48.5775758],[9.3188749,48.5771171],[9.320191,48.5767736],[9.3208407,48.5762719],[9.3207623,48.5760396],[9.321631,48.5756474],[9.3229206,48.5736278],[9.3225078,48.5732889],[9.3227509,48.5730537],[9.3224533,48.5723415],[9.3219221,48.5723201],[9.3218242,48.5708605],[9.3215324,48.5707293],[9.3218359,48.57003],[9.3214178,48.5694939],[9.3216707,48.569191],[9.3194113,48.5685522],[9.3192223,48.5680662],[9.3177009,48.5672601],[9.317905,48.5671632],[9.3143668,48.5657606],[9.3126241,48.5647224],[9.3111635,48.5634004],[9.3115782,48.5628268],[9.3121005,48.5626112],[9.3141041,48.5619555],[9.3149363,48.5619654],[9.3166889,48.5603147],[9.3174122,48.5604717],[9.317647,48.5599117],[9.3181808,48.5600619],[9.3188141,48.5597781],[9.3199671,48.558851],[9.3207124,48.556507],[9.3200215,48.5557945],[9.3183853,48.5553368],[9.3169753,48.554616],[9.3184962,48.5538591],[9.3187801,48.5531953],[9.3190638,48.5532552],[9.3191699,48.5524831],[9.3172914,48.5517907],[9.3169873,48.5521214],[9.3153831,48.5518496],[9.3145261,48.5524813],[9.3140851,48.5514742],[9.3154532,48.5511508],[9.3164147,48.551279],[9.3176163,48.5500129],[9.3192787,48.5504723],[9.3195716,48.549539],[9.3181104,48.548612],[9.3168459,48.5495592],[9.3139905,48.547361],[9.3139875,48.5469266],[9.314099,48.5465646],[9.3145636,48.5462522],[9.318347,48.5464548],[9.3190202,48.5473377],[9.3204189,48.5479897],[9.3220583,48.5472103],[9.322449,48.5469761],[9.3229556,48.5458221],[9.3242153,48.5460053],[9.3241255,48.5449104],[9.3246767,48.544924],[9.3248982,48.5443952],[9.324864,48.5434754],[9.32396,48.5417219],[9.3239189,48.5414743],[9.3243563,48.5412616],[9.3258296,48.5414325],[9.3264468,48.5417359],[9.3269861,48.541121],[9.3270788,48.5405587],[9.3291825,48.5408416],[9.3303361,48.5403038],[9.3313508,48.5404249],[9.3326915,48.5413641],[9.3334281,48.5422261],[9.3343766,48.542237],[9.336691,48.5435646],[9.3368164,48.5450397],[9.3375714,48.5472352],[9.3386123,48.5485811],[9.3395942,48.5493144],[9.3401594,48.5483929],[9.3435532,48.5462646],[9.3453553,48.5456681],[9.3484962,48.545106],[9.3495822,48.5437658],[9.351421,48.5432392],[9.3537587,48.5432337],[9.3559901,48.5440774],[9.3579499,48.5444894],[9.3607171,48.5438581],[9.3618103,48.5433825],[9.3648396,48.5407078],[9.365934,48.5393174],[9.3668343,48.5374659],[9.3694881,48.534493],[9.3721472,48.5339116],[9.3738332,48.5338739],[9.3789903,48.5345098],[9.378892,48.5347113],[9.3798493,48.5353857],[9.3842097,48.5356812],[9.3859869,48.5344207],[9.388213,48.5341691],[9.3898691,48.534475],[9.3912147,48.5319826],[9.3935539,48.5308584],[9.395585,48.5313741],[9.3960527,48.532133],[9.3975929,48.5334535],[9.3996074,48.5343307],[9.4054213,48.535505],[9.4068798,48.5355782],[9.4069311,48.5359824],[9.406059,48.5374728],[9.4062604,48.5378619],[9.408142,48.537913],[9.408607,48.5385101],[9.4086217,48.5389775],[9.41413,48.535754],[9.4150155,48.5364878],[9.4183956,48.5362322],[9.4195299,48.5376542],[9.4162334,48.5376207],[9.4166389,48.5383747],[9.4192369,48.539907],[9.4208367,48.5418076],[9.4243427,48.5408266],[9.4258244,48.5422231],[9.4268303,48.5418041],[9.4272191,48.5424249],[9.4263029,48.543782],[9.4299142,48.5437343],[9.4300732,48.5429632],[9.4305897,48.5434024],[9.4304078,48.5438333],[9.4310525,48.5439176],[9.4312879,48.5431871],[9.432601,48.5427293],[9.4330757,48.5415125],[9.4342749,48.5418439],[9.4352093,48.5413639],[9.4360794,48.5405371],[9.4397668,48.5401252],[9.4400607,48.541423],[9.4404803,48.5414129],[9.4404069,48.5421514],[9.4409182,48.5426821],[9.4420885,48.542929],[9.444783,48.5441787],[9.4463404,48.5443221],[9.4487787,48.5450876],[9.4506829,48.5445403],[9.4508274,48.545513],[9.4506303,48.546246],[9.4508917,48.5466189],[9.4522198,48.5461972],[9.4531568,48.5454584],[9.4551045,48.5448307],[9.4635068,48.5444246],[9.4642595,48.5437958],[9.4642446,48.5430305],[9.4638481,48.5425053],[9.4640997,48.5403095],[9.464443,48.5397907],[9.4652852,48.539308],[9.4671869,48.5386967],[9.4720546,48.5384008],[9.473746,48.5376524],[9.474113,48.5369759],[9.4783742,48.5361502],[9.4777262,48.5354721],[9.4807869,48.5348872],[9.4826795,48.5351757],[9.4864908,48.5331186],[9.488067,48.5316276],[9.4902733,48.5305108],[9.4892341,48.527605],[9.4890107,48.5274636],[9.4826823,48.5283438],[9.4813113,48.5280317],[9.4801117,48.5273223],[9.4793293,48.5273744],[9.479261,48.5271284],[9.4789532,48.5270763],[9.4788896,48.5265558],[9.4792509,48.5260768],[9.4788869,48.526314],[9.4786088,48.5257149],[9.4805253,48.5251472],[9.4802766,48.5236852],[9.4799959,48.5234316],[9.4784364,48.523114],[9.4767564,48.5238656],[9.4756455,48.5240055],[9.474957,48.5237395],[9.4737155,48.5229686],[9.4738916,48.5228105],[9.4735848,48.5224395],[9.4723999,48.5222969],[9.4730806,48.521785],[9.4742386,48.5214753],[9.4748162,48.521554],[9.4749051,48.5213158],[9.4716269,48.5196748],[9.4706968,48.5186444],[9.4687526,48.5182378],[9.4674771,48.5175908],[9.4678431,48.5171339],[9.4662291,48.516267],[9.4656651,48.515589],[9.4656349,48.5150982],[9.4662593,48.514907],[9.4663149,48.5154459],[9.4673376,48.515563],[9.4673182,48.514456],[9.4685099,48.5133431],[9.4720587,48.512443],[9.4740041,48.5124722],[9.4736521,48.5135856],[9.472897,48.5140089],[9.4730358,48.5145348],[9.4722,48.5148058],[9.471791,48.5153736],[9.4736562,48.5162134],[9.4754561,48.5165382],[9.4764577,48.5172882],[9.4784061,48.518046],[9.4794364,48.5183308],[9.4840489,48.5177988],[9.4852378,48.5180837],[9.4889694,48.5171385],[9.4893493,48.5173694],[9.4909752,48.5174212],[9.4887491,48.5203103],[9.4905165,48.5201976],[9.4909446,48.5211276],[9.4914393,48.5211831],[9.4938475,48.5211711],[9.4946412,48.5207252],[9.4975069,48.5217673],[9.4992378,48.5207952],[9.4983188,48.5202776],[9.4974358,48.5183378],[9.4973958,48.5168268],[9.4977764,48.5156572],[9.4985497,48.5146853],[9.5008227,48.5135246],[9.5017402,48.5124951],[9.5028214,48.5132438],[9.5038,48.5132812],[9.5058017,48.5145298],[9.5060878,48.5157675],[9.502908,48.5162371],[9.502329,48.5164589],[9.5023296,48.5170231],[9.5028222,48.5173947],[9.5044479,48.5175597],[9.5072177,48.5184776],[9.5092491,48.5181095],[9.5082963,48.5197003],[9.5091977,48.5203971],[9.5093619,48.5214605],[9.5085227,48.5237009],[9.5081078,48.5237471],[9.5043335,48.5269007],[9.5073587,48.526717],[9.5076008,48.526261],[9.510149,48.5263534],[9.5107502,48.5248559],[9.51064,48.5233271],[9.5123577,48.5219501],[9.5134504,48.5215326],[9.5140022,48.5216365],[9.5146383,48.5210525],[9.5157749,48.5207818],[9.5178897,48.5185466],[9.5200308,48.5178132],[9.520563,48.5183898],[9.520731,48.519381],[9.5212472,48.5200274],[9.5218659,48.5201557],[9.5233981,48.5175493],[9.5247708,48.5158108],[9.5256483,48.5162549],[9.528052,48.515944],[9.5286738,48.5156491],[9.5281408,48.5146298],[9.5291433,48.5138576],[9.5309736,48.5135919],[9.5324483,48.5153788],[9.5319491,48.5155213],[9.5320816,48.5162535],[9.5332627,48.5167838],[9.5323906,48.5180422],[9.5327271,48.5182975],[9.532674,48.5188658],[9.532916,48.5192802],[9.5337879,48.5199685],[9.5369756,48.5203723],[9.5353374,48.521419],[9.5343504,48.5212501],[9.5339734,48.5216446],[9.5333924,48.5217344],[9.5330415,48.5223224],[9.5328876,48.5238227],[9.5325964,48.5239064],[9.5324932,48.5250899],[9.5322475,48.5250731],[9.532024,48.5269666],[9.5395922,48.5272955],[9.5402183,48.5270789],[9.5409877,48.5263721],[9.5418479,48.5264541],[9.5448665,48.527831],[9.5461648,48.5278902],[9.5479494,48.5285551],[9.5488109,48.5284339],[9.5513403,48.5288843],[9.5542484,48.5303829],[9.5552295,48.530602],[9.5560131,48.531165],[9.5568826,48.5310308],[9.5580945,48.5316931],[9.5596715,48.5319545],[9.5605431,48.532597],[9.5610598,48.5333692],[9.5628029,48.5341261],[9.5645989,48.5353385],[9.5649023,48.5359848],[9.5649199,48.5370889],[9.5657854,48.5380864],[9.5663408,48.5382958],[9.5673063,48.538069],[9.5678534,48.5382122],[9.5686382,48.53868],[9.5692188,48.5395476],[9.569964,48.5393184],[9.5736345,48.5399905],[9.5794201,48.538764],[9.5825117,48.5389861],[9.5813012,48.5405398],[9.5769011,48.5423632],[9.5776802,48.5432541],[9.5782163,48.5453671],[9.578464,48.5453126],[9.5787512,48.5465611],[9.5785368,48.5466086],[9.5783976,48.54714],[9.5755213,48.5464838],[9.5749267,48.5465643],[9.574758,48.546218],[9.573196,48.5459652],[9.5716591,48.5460877],[9.5661391,48.5472549],[9.5658124,48.546877],[9.5641408,48.5473598],[9.5623042,48.5483767],[9.5613559,48.5496901],[9.5612201,48.5503193],[9.5616452,48.5504249],[9.5612821,48.5516231],[9.5605304,48.5518423],[9.5603118,48.5521306],[9.5613814,48.5525238],[9.5627445,48.5538255],[9.5636026,48.5550518],[9.5638181,48.5558132],[9.5657567,48.5562955],[9.5666468,48.557188],[9.5675642,48.5572975],[9.5679122,48.5574948],[9.567864,48.5577639],[9.5694627,48.5583854],[9.5705664,48.5597141],[9.5671781,48.5610834],[9.5668102,48.5615206],[9.5686923,48.5620503],[9.5695436,48.5628368],[9.5700633,48.5628179],[9.5730228,48.5650345],[9.5739352,48.5653412],[9.5734555,48.5666225],[9.5742477,48.5672843],[9.5778811,48.5682373],[9.5786743,48.5695856],[9.5783663,48.5701727],[9.5786133,48.5711377],[9.5775473,48.5726677],[9.5797101,48.5727684],[9.581053,48.5726029],[9.5817054,48.5722828],[9.583233,48.57238],[9.5837065,48.5728213],[9.5843754,48.5729256],[9.5871218,48.5720883],[9.5889776,48.5719799],[9.5912811,48.5722147],[9.5934833,48.574322],[9.5932281,48.5776327],[9.5925847,48.5784056],[9.5932471,48.5787157],[9.5936183,48.5793295],[9.5931852,48.5801431],[9.5930251,48.5813123],[9.5931855,48.5819643],[9.5941502,48.5826387],[9.5948405,48.5838042],[9.5949341,48.5852878],[9.5955407,48.5860923],[9.5953438,48.5872454],[9.5954723,48.5881394],[9.5962274,48.5891004],[9.5963443,48.5899299],[9.5954723,48.5919402],[9.5949147,48.5922466],[9.5939869,48.5923174],[9.5934806,48.5930787],[9.5923115,48.5939529],[9.592781,48.5956829],[9.592515,48.5980303],[9.5919508,48.599329],[9.5902539,48.6008921],[9.5889147,48.6025848],[9.5881274,48.6043783],[9.5889517,48.6051459],[9.5897044,48.6054846],[9.5888711,48.6061867],[9.5898792,48.607052],[9.5909641,48.6073045],[9.5915639,48.6071337],[9.5931763,48.6077424],[9.5939629,48.6092777],[9.5950814,48.6097173],[9.596058,48.6105395],[9.5958205,48.6108985],[9.5959672,48.6117421],[9.5938985,48.6134397],[9.5930581,48.6138557],[9.5939563,48.6148073],[9.5940219,48.6163202],[9.5933298,48.6168988],[9.59189,48.6163626],[9.5902174,48.6170652],[9.587175,48.6166848],[9.5862558,48.6178841],[9.5839189,48.6184915],[9.5829986,48.6195471],[9.5823483,48.6197464],[9.5813408,48.6218866],[9.5814836,48.6225189],[9.581052,48.6234759],[9.5796843,48.6244346],[9.5778024,48.6250733],[9.575954,48.624976],[9.5746231,48.6252207],[9.5735853,48.6256251],[9.571362,48.6270996],[9.5670264,48.628768],[9.5643665,48.6289358],[9.5618747,48.6294207],[9.5597611,48.6302497],[9.5580583,48.6300418],[9.556417,48.6303836],[9.5560152,48.6299088],[9.5546569,48.6301999],[9.5545052,48.6308761],[9.5535681,48.6313794],[9.5523833,48.6310563],[9.5505223,48.6311191],[9.5484564,48.6305223],[9.5461811,48.6303917],[9.5460801,48.6309997],[9.5453947,48.6306365],[9.5444702,48.6305186],[9.5394878,48.6309289],[9.5381447,48.6307674],[9.5365014,48.6312891],[9.535015,48.6322006],[9.5349021,48.634478],[9.5353285,48.6347477],[9.5351575,48.634867],[9.5360646,48.63534],[9.5402159,48.6361286],[9.5401022,48.6364597],[9.5404768,48.636762],[9.5429166,48.6377412],[9.5504881,48.6390051],[9.5539033,48.6402128],[9.5564188,48.6408117],[9.5559213,48.6412457],[9.5561558,48.6415405],[9.5556285,48.6421723],[9.5532161,48.6422204],[9.5525116,48.6426189],[9.5504335,48.6428184],[9.5503949,48.6430629],[9.5506655,48.6437231],[9.5508868,48.6437379],[9.5501727,48.645313],[9.5499924,48.6465367],[9.5526423,48.6468677],[9.5524118,48.6480257],[9.5525666,48.6480835],[9.5549612,48.648274],[9.5549074,48.6503908],[9.5537627,48.649994],[9.5540342,48.6501636],[9.5538395,48.6505714],[9.5541889,48.6506446],[9.5539454,48.6511543],[9.5541321,48.6518734],[9.5546141,48.6520217],[9.5549123,48.6551884],[9.5545641,48.6559274],[9.5523231,48.6558802],[9.5492778,48.6553069],[9.5474941,48.6558137],[9.5458605,48.6566897],[9.5447208,48.6566843],[9.5452057,48.6574221],[9.5442092,48.6579654],[9.5434415,48.6579326],[9.5412097,48.6588757],[9.5407172,48.6593475],[9.5408981,48.6595601],[9.5405597,48.6605747],[9.5389555,48.6597786],[9.5359155,48.6600864],[9.532,48.6598923],[9.5292546,48.6588978],[9.5278735,48.6580734],[9.5241644,48.6577437],[9.5235161,48.657769],[9.5234236,48.6594273],[9.5241213,48.6596788],[9.5239772,48.6602903],[9.5229836,48.660294],[9.5229754,48.6600475],[9.5203324,48.6597323],[9.5188953,48.6591678],[9.5191611,48.6584158],[9.5189936,48.6583372],[9.5179814,48.658828],[9.5162732,48.6587017],[9.5155964,48.6584579],[9.5138812,48.6571316],[9.5114361,48.6570287],[9.5087356,48.6565239],[9.5088172,48.6572791],[9.5102273,48.6581433],[9.5097684,48.658287],[9.5105064,48.6594213],[9.50943,48.6596128],[9.5093608,48.6600601],[9.5082638,48.6597496],[9.5075426,48.6603406],[9.5084219,48.6612695],[9.5073519,48.662682],[9.5067896,48.6625062],[9.5060964,48.6618831],[9.5061408,48.6630789],[9.5056989,48.6638365],[9.5040633,48.6641443],[9.5028589,48.6630653],[9.5016648,48.6646515],[9.5007037,48.665502],[9.5003324,48.6661648],[9.5003778,48.6665237],[9.4978642,48.6661168],[9.4978046,48.6666649],[9.4966187,48.6665811],[9.4959745,48.6663187],[9.4951116,48.6655289],[9.4930273,48.6661648],[9.4932477,48.6670041],[9.4939514,48.6680252],[9.4925257,48.6685313],[9.4917091,48.6685049],[9.4916354,48.6690497],[9.4918684,48.6695824],[9.4939703,48.6695233],[9.4940512,48.66935],[9.4948957,48.669582],[9.4952388,48.6699291],[9.4945309,48.6715708],[9.4946212,48.672175],[9.4935067,48.6729551],[9.4936957,48.674252],[9.4923085,48.6749917],[9.4919821,48.6758719],[9.4922264,48.6764661],[9.4919641,48.6773334],[9.4910797,48.6777749],[9.4909974,48.6775663],[9.4906265,48.6776828],[9.4914888,48.678096],[9.4917043,48.6785715],[9.4921803,48.6786126],[9.492328,48.6787471],[9.492107,48.6788163],[9.4924155,48.6789952],[9.4927025,48.6788836],[9.4932665,48.6791233],[9.4920872,48.6791434],[9.4917982,48.6796523],[9.4921994,48.6805356],[9.4895333,48.6806749],[9.4893873,48.6810303],[9.4885505,48.6808304],[9.4884108,48.6814735],[9.4890035,48.6823617],[9.4890503,48.683562],[9.4884694,48.6842286],[9.4898136,48.6850792],[9.492603,48.6860814],[9.4948197,48.6865355],[9.4883389,48.6872325],[9.4893616,48.6885852],[9.4892009,48.6897662],[9.4897251,48.6898537],[9.4897323,48.6900616],[9.4888294,48.6904058],[9.4890604,48.6919455],[9.4878415,48.6920729],[9.4879247,48.6923256],[9.4875346,48.6928209],[9.4885377,48.6935491],[9.4906617,48.6938547],[9.4902286,48.6961486],[9.4903392,48.6967268],[9.4918882,48.6966505],[9.4925719,48.6980406],[9.4938914,48.6980667],[9.493903,48.6982636],[9.4933721,48.7004124],[9.491496,48.7010518],[9.4909725,48.7015228],[9.4916642,48.7019097],[9.491477,48.7031841],[9.4898866,48.7029803],[9.487553,48.7036791],[9.4872686,48.7042995],[9.4867123,48.7047677],[9.4848419,48.7059457],[9.4841907,48.7073881],[9.4833921,48.7080225],[9.4835744,48.7085259],[9.4842743,48.7088854],[9.4844551,48.7089805]],[[9.3145044,48.5805752],[9.3141927,48.580564],[9.3143706,48.5804506],[9.3145044,48.5805752]]],[[[9.1714852,48.600216],[9.1713887,48.5999833],[9.1693326,48.6004673],[9.1692949,48.6017494],[9.1717801,48.6018355],[9.1719215,48.604498],[9.1683798,48.6041574],[9.1663949,48.604412],[9.1657479,48.6036988],[9.1655497,48.6042916],[9.1642295,48.6045815],[9.1641008,48.6015217],[9.1650014,48.6013903],[9.166057,48.6008252],[9.1680082,48.6005621],[9.1678753,48.599845],[9.1673167,48.5996249],[9.1653149,48.5990704],[9.1639958,48.599251],[9.1639075,48.5973402],[9.1692503,48.5982115],[9.1716322,48.5983258],[9.1717113,48.6002146],[9.1714852,48.600216]]]]}}]}